RED-EYE 2 (MERLOT)      
1 45800U 98067RM  20336.89720790  .00010146  00000-0  17901-3 0  9996
2 45800  51.6416 237.5107 0000367 317.5920  42.5041 15.51018546 26000
RED-EYE 3 (CABERNET)    
1 45809U 98067RN  20336.89769441  .00009984  00000-0  17630-3 0  9998
2 45809  51.6416 237.5142 0000499 270.1623  89.9309 15.51014902 24987
DEMI                    
1 45916U 98067RP  20336.89405828  .00022796  00000-0  36993-3 0  9992
2 45916  51.6413 236.7470 0002457 179.1284 180.9711 15.52638749 21983
TECHEDSAT 10            
1 45917U 98067RQ  20336.87571948  .00109664  00000-0  12610-2 0  9997
2 45917  51.6376 233.6189 0005290 187.7879 172.3033 15.61153347 21975
PROGRESS-MS 15          
1 45937U 20050A   20336.55342440  .00004765  00000-0  94183-4 0  9997
2 45937  51.6479 240.3334 0001885  99.4059 319.7109 15.49127030257960
CYGNUS NG-14            
1 46530U 20069A   20336.55342440  .00004765  00000-0  94183-4 0  9997
2 46530  51.6479 240.3334 0001885  99.4059 319.7109 15.49127030257960
SOYUZ-MS 17             
1 46613U 20072A   20336.55342440  .00004765  00000-0  94183-4 0  9993
2 46613  51.6479 240.3334 0001885  99.4059 319.7109 15.49127030257962
CREW DRAGON 1           
1 46920U 20084A   20336.55342440  .00004765  00000-0  94183-4 0  9997
2 46920  51.6479 240.3334 0001885  99.4059 319.7109 15.49127030257963
SPOC                    
1 46921U 98067RR  20336.84479814  .00013633  00000-0  24061-3 0  9993
2 46921  51.6429 238.6605 0003013  75.3072 284.8251 15.50682133  4167
BOBCAT-1                
1 46922U 98067RS  20336.84401463  .00019234  00000-0  33412-3 0  9992
2 46922  51.6428 238.6561 0002847  81.6723 278.4588 15.50840861  4127
NEUTRON-1               
1 46923U 98067RT  20336.91065506  .00012991  00000-0  23036-3 0  9999
2 46923  51.6428 238.3501 0003008  86.3313 273.8020 15.50594817  4202
DESCENT                 
1 46924U 98067RU  20336.71482801  .00026331  00000-0  45056-3 0  9998
2 46924  51.6426 239.2930 0003284 112.8958 247.2378 15.51061837  4149
LEMUR-2-BAXTER-OLIVER   
1 46925U 98067RV  20336.84295887  .00035356  00000-0  59611-3 0  9998
2 46925  51.6428 238.6490 0003265 114.8811 245.2518 15.51321642  4120
LEMUR-2-DJARA           
1 46926U 98067RW  20336.90813492  .00030787  00000-0  52348-3 0  9997
2 46926  51.6428 238.3339 0002802 103.7770 256.3531 15.51154456  4155
SAT-LLA                 
1 46927U 98067RX  20336.33179422  .00013264  00000-0  23563-3 0  9991
2 46927  51.6430 241.2333 0003209 100.5512 259.5839 15.50522820  4022
